$$SOE
2460154.500000000, A.D. 2023-Jul-29 00:00:00.0000, -6.400322805872632E+07, 3.696481684011873E+08, 3.387970320003426E+07,
2460161.500000000, A.D. 2023-Aug-05 00:00:00.0000, -7.455118724896631E+07, 3.692531491532815E+08, 3.411088648825073E+07,
2460168.500000000, A.D. 2023-Aug-12 00:00:00.0000, -8.503228091057950E+07, 3.685268709147322E+08, 3.431146741217263E+07,
2460175.500000000, A.D. 2023-Aug-19 00:00:00.0000, -9.543802069398411E+07, 3.674739310056828E+08, 3.448163381063606E+07,
2460182.500000000, A.D. 2023-Aug-26 00:00:00.0000, -1.057601573554366E+08, 3.660990001036786E+08, 3.462158596720700E+07,
2460189.500000000, A.D. 2023-Sep-02 00:00:00.0000, -1.159906705485323E+08, 3.644068155861902E+08, 3.473153577071643E+07,
2460196.500000000, A.D. 2023-Sep-09 00:00:00.0000, -1.261217588925560E+08, 3.624021755455033E+08, 3.481170594027495E+07,
2460203.500000000, A.D. 2023-Sep-16 00:00:00.0000, -1.361458301595088E+08, 3.600899333627161E+08, 3.486232929008138E+07,
2460210.500000000, A.D. 2023-Sep-23 00:00:00.0000, -1.460554911710756E+08, 3.574749930763300E+08, 3.488364801510331E+07,
2460217.500000000, A.D. 2023-Sep-30 00:00:00.0000, -1.558435377512932E+08, 3.545623066900079E+08, 3.487591312236492E+07,
2460224.500000000, A.D. 2023-Oct-07 00:00:00.0000, -1.655029470914724E+08, 3.513568728364995E+08, 3.483938417594469E+07,
2460231.500000000, A.D. 2023-Oct-14 00:00:00.0000, -1.750268714845670E+08, 3.478637334427797E+08, 3.477432898584209E+07,
2460238.500000000, A.D. 2023-Oct-21 00:00:00.0000, -1.844086302012160E+08, 3.440879699569816E+08, 3.468102307243654E+07,
2460245.500000000, A.D. 2023-Oct-28 00:00:00.0000, -1.936417009349324E+08, 3.400347013671910E+08, 3.455974921974522E+07,
2460252.500000000, A.D. 2023-Nov-04 00:00:00.0000, -2.027197120635569E+08, 3.357090832151976E+08, 3.441079716688384E+07,
2460259.500000000, A.D. 2023-Nov-11 00:00:00.0000, -2.116364355445751E+08, 3.311163069778731E+08, 3.423446337006836E+07,
2460266.500000000, A.D. 2023-Nov-18 00:00:00.0000, -2.203857802194647E+08, 3.262615997264897E+08, 3.403105080752607E+07,
2460273.500000000, A.D. 2023-Nov-25 00:00:00.0000, -2.289617854474298E+08, 3.211502240626536E+08, 3.380086882014489E+07,
2460280.500000000, A.D. 2023-Dec-02 00:00:00.0000, -2.373586150329653E+08, 3.157874782956664E+08, 3.354423298194827E+07,
2460287.500000000, A.D. 2023-Dec-09 00:00:00.0000, -2.455705513639696E+08, 3.101786967786626E+08, 3.326146498630336E+07,
2460294.500000000, A.D. 2023-Dec-16 00:00:00.0000, -2.535919894709931E+08, 3.043292503951854E+08, 3.295289252105212E+07,
2460301.500000000, A.D. 2023-Dec-23 00:00:00.0000, -2.614174306600990E+08, 2.982445478680489E+08, 3.261884915600652E+07,
2460308.500000000, A.D. 2023-Dec-30 00:00:00.0000, -2.690414770614711E+08, 2.919300389302493E+08, 3.225967445101646E+07,
2460315.500000000, A.D. 2024-Jan-06 00:00:00.0000, -2.764588288654319E+08, 2.853912169926339E+08, 3.187571425359188E+07,
2460322.500000000, A.D. 2024-Jan-13 00:00:00.0000, -2.836642810655370E+08, 2.786336194936833E+08, 3.146732074607004E+07,
2460329.500000000, A.D. 2024-Jan-20 00:00:00.0000, -2.906527184800228E+08, 2.716628290032444E+08, 3.103485238076125E+07,
2460336.500000000, A.D. 2024-Jan-27 00:00:00.0000, -2.974191110807514E+08, 2.644844757252276E+08, 3.057867394142434E+07,
2460343.500000000, A.D. 2024-Feb-03 00:00:00.0000, -3.039585100558702E+08, 2.571042404461083E+08, 3.009915669175521E+07,
2460350.500000000, A.D. 2024-Feb-10 00:00:00.0000, -3.102660443254266E+08, 2.495278576315715E+08, 2.959667856047840E+07,
2460357.500000000, A.D. 2024-Feb-17 00:00:00.0000, -3.163369173694729E+08, 2.417611186721964E+08, 2.907162434990638E+07,
2460364.500000000, A.D. 2024-Feb-24 00:00:00.0000, -3.221664043330854E+08, 2.338098752866107E+08, 2.852438596506442E+07,
2460371.500000000, A.D. 2024-Mar-02 00:00:00.0000, -3.277498493815444E+08, 2.256800430444047E+08, 2.795536265759389E+07,
2460378.500000000, A.D. 2024-Mar-09 00:00:00.0000, -3.330826631714935E+08, 2.173776049424087E+08, 2.736496126653692E+07,
2460385.500000000, A.D. 2024-Mar-16 00:00:00.0000, -3.381603200487516E+08, 2.089086152297883E+08, 2.675359643615285E+07,
2460392.500000000, A.D. 2024-Mar-23 00:00:00.0000, -3.429783550833851E+08, 2.002792045903949E+08, 2.612169091132022E+07,
2460399.500000000, A.D. 2024-Mar-30 00:00:00.0000, -3.475323631925637E+08, 1.914955866564949E+08, 2.546967611434958E+07,
2460406.500000000, A.D. 2024-Apr-06 00:00:00.0000, -3.518180001051569E+08, 1.825640624901561E+08, 2.479799270493411E+07,
2460413.500000000, A.D. 2024-Apr-13 00:00:00.0000, -3.558309816220357E+08, 1.734910238710057E+08, 2.410709086611246E+07,
2460420.500000000, A.D. 2024-Apr-20 00:00:00.0000, -3.595670821313103E+08, 1.642829580643548E+08, 2.339743062245484E+07,
2460427.500000000, A.D. 2024-Apr-27 00:00:00.0000, -3.630221339099514E+08, 1.549464535080164E+08, 2.266948228404634E+07,
2460434.500000000, A.D. 2024-May-04 00:00:00.0000, -3.661920271388896E+08, 1.454882057170990E+08, 2.192372695117106E+07,
2460441.500000000, A.D. 2024-May-11 00:00:00.0000, -3.690727104076539E+08, 1.359150233066758E+08, 2.116065705002518E+07,
2460448.500000000, A.D. 2024-May-18 00:00:00.0000, -3.716601916427438E+08, 1.262338341545919E+08, 2.038077689428900E+07,
2460455.500000000, A.D. 2024-May-25 00:00:00.0000, -3.739505394535720E+08, 1.164516916976531E+08, 1.958460327037630E+07,
2460462.500000000, A.D. 2024-Jun-01 00:00:00.0000, -3.759398848569120E+08, 1.065757813039282E+08, 1.877266603692077E+07,
2460469.500000000, A.D. 2024-Jun-08 00:00:00.0000, -3.776244231563058E+08, 9.661342669790824E+07, 1.794550871481993E+07,
2460476.500000000, A.D. 2024-Jun-15 00:00:00.0000, -3.790004156016067E+08, 8.657209698238900E+07, 1.710368907654491E+07,
2460483.500000000, A.D. 2024-Jun-22 00:00:00.0000, -3.800641918611259E+08, 7.645941542933665E+07, 1.624777992371757E+07,
2460490.500000000, A.D. 2024-Jun-29 00:00:00.0000, -3.808121554604038E+08, 6.628316821477531E+07, 1.537837009943254E+07,
2460497.500000000, A.D. 2024-Jul-06 00:00:00.0000, -3.812407895789880E+08, 5.605131062364585E+07, 1.449606529146090E+07,
2460504.500000000, A.D. 2024-Jul-13 00:00:00.0000, -3.813466612897483E+08, 4.577197354469933E+07, 1.360148867900525E+07,
2460511.500000000, A.D. 2024-Jul-20 00:00:00.0000, -3.811264262620839E+08, 3.545347139422132E+07, 1.269528169932265E+07,
2460518.500000000, A.D. 2024-Jul-27 00:00:00.0000, -3.805768346292753E+08, 2.510431049738842E+07, 1.177810491589725E+07,
2460525.500000000, A.D. 2024-Aug-03 00:00:00.0000, -3.796947377945288E+08, 1.473319754198741E+07, 1.085063893226101E+07,
2460532.500000000, A.D. 2024-Aug-10 00:00:00.0000, -3.784770960558655E+08, 4.349048087895568E+06, 9.913585335510777E+06,
2460539.500000000, A.D. 2024-Aug-17 00:00:00.0000, -3.769209870477808E+08, -6.039004863690011E+06, 8.967667666372513E+06,
2460546.500000000, A.D. 2024-Aug-24 00:00:00.0000, -3.750236150200337E+08, -1.642160228907242E+07, 8.013632410637820E+06,
2460553.500000000, A.D. 2024-Aug-31 00:00:00.0000, -3.727823208934352E+08, -2.678915064354429E+07, 7.052249995243367E+06,
2460560.500000000, A.D. 2024-Sep-07 00:00:00.0000, -3.701945927915331E+08, -3.713181335713165E+07, 6.084315764240041E+06,
2460567.500000000, A.D. 2024-Sep-14 00:00:00.0000, -3.672580770331123E+08, -4.743950136949043E+07, 5.110651006113265E+06,
2460574.500000000, A.D. 2024-Sep-21 00:00:00.0000, -3.639705916865392E+08, -5.770186233688528E+07, 4.132104249519650E+06,
2460581.500000000, A.D. 2024-Sep-28 00:00:00.0000, -3.603301432487977E+08, -6.790827179237601E+07, 3.149552604935147E+06,
2460588.500000000, A.D. 2024-Oct-05 00:00:00.0000, -3.563349428577257E+08, -7.804782631833023E+07, 2.163902811852545E+06,
2460595.500000000, A.D. 2024-Oct-12 00:00:00.0000, -3.519834224732996E+08, -8.810933582021342E+07, 1.176092263922766E+06,
2460602.500000000, A.D. 2024-Oct-19 00:00:00.0000, -3.472742528528269E+08, -9.808131525564644E+07, 1.870901453560516E+05,
2460609.500000000, A.D. 2024-Oct-26 00:00:00.0000, -3.422063634318068E+08, -1.079519767188824E+08, -8.021013904856071E+05,
2460616.500000000, A.D. 2024-Nov-02 00:00:00.0000, -3.367789639373933E+08, -1.177092221404116E+08, -1.790446043751419E+06,
2460623.500000000, A.D. 2024-Nov-09 00:00:00.0000, -3.309915677219008E+08, -1.273406367051986E+08, -2.776872207967900E+06,
2460630.500000000, A.D. 2024-Nov-16 00:00:00.0000, -3.248440168719332E+08, -1.368334831295305E+08, -3.760271839591488E+06,
2460637.500000000, A.D. 2024-Nov-23 00:00:00.0000, -3.183365091247185E+08, -1.461746970049966E+08, -4.739499377402142E+06,
2460644.500000000, A.D. 2024-Nov-30 00:00:00.0000, -3.114696264577836E+08, -1.553508834306198E+08, -5.713370747924402E+06,
2460651.500000000, A.D. 2024-Dec-07 00:00:00.0000, -3.042443650005911E+08, -1.643483147118298E+08, -6.680662476527482E+06,
2460658.500000000, A.D. 2024-Dec-14 00:00:00.0000, -2.966621670150440E+08, -1.731529281239643E+08, -7.640110758705832E+06,
2460665.500000000, A.D. 2024-Dec-21 00:00:00.0000, -2.887249573091043E+08, -1.817503252280222E+08, -8.590410400489889E+06,
2460672.500000000, A.D. 2024-Dec-28 00:00:00.0000, -2.804351821444089E+08, -1.901257759812804E+08, -9.530214074567422E+06,
2460679.500000000, A.D. 2025-Jan-04 00:00:00.0000, -2.717958480578375E+08, -1.982642255679224E+08, -1.045813196200377E+07,
2460686.500000000, A.D. 2025-Jan-11 00:00:00.0000, -2.628105624092768E+08, -2.061503026151592E+08, -1.137273150517829E+07,
2460693.500000000, A.D. 2025-Jan-18 00:00:00.0000, -2.534835765304572E+08, -2.137683300661533E+08, -1.227253729420629E+07,
2460700.500000000, A.D. 2025-Jan-25 00:00:00.0000, -2.438198311532353E+08, -2.211023395679253E+08, -1.315603118298542E+07,
2460707.500000000, A.D. 2025-Feb-01 00:00:00.0000, -2.338250038110684E+08, -2.281360898186921E+08, -1.402165269367792E+07,
2460714.500000000, A.D. 2025-Feb-08 00:00:00.0000, -2.235055579927704E+08, -2.348530892949283E+08, -1.486779975580323E+07,
2460721.500000000, A.D. 2025-Feb-15 00:00:00.0000, -2.128687938005707E+08, -2.412366238395605E+08, -1.569282982982102E+07,
$$EOE